$$SOE
2460154.500000000, A.D. 2023-Jul-29 00:00:00.0000, 2.453877448033983E+08, 1.227193618097725E+08, 1.797838903021440E+05,
2460161.500000000, A.D. 2023-Aug-05 00:00:00.0000, 2.403458653396516E+08, 1.359790731133188E+08, -4.258596292089447E+05,
2460168.500000000, A.D. 2023-Aug-12 00:00:00.0000, 2.347501038412109E+08, 1.489255685971868E+08, -1.030531023394838E+06,
2460175.500000000, A.D. 2023-Aug-19 00:00:00.0000, 2.286241353669778E+08, 1.615358449352232E+08, -1.632883716692433E+06,
2460182.500000000, A.D. 2023-Aug-26 00:00:00.0000, 2.219924067506232E+08, 1.737889098987713E+08, -2.231632567208961E+06,
2460189.500000000, A.D. 2023-Sep-02 00:00:00.0000, 2.148799494668785E+08, 1.856657595386035E+08, -2.825556702187926E+06,
2460196.500000000, A.D. 2023-Sep-09 00:00:00.0000, 2.073122049347413E+08, 1.971493385729343E+08, -3.413501482132614E+06,
2460203.500000000, A.D. 2023-Sep-16 00:00:00.0000, 1.993148635124297E+08, 2.082244864740199E+08, -3.994379688991249E+06,
2460210.500000000, A.D. 2023-Sep-23 00:00:00.0000, 1.909137182658428E+08, 2.188778720278225E+08, -4.567172034989715E+06,
2460217.500000000, A.D. 2023-Sep-30 00:00:00.0000, 1.821345334630596E+08, 2.290979199124645E+08, -5.130926949738249E+06,
2460224.500000000, A.D. 2023-Oct-07 00:00:00.0000, 1.730029253941073E+08, 2.388747309318652E+08, -5.684759558737978E+06,
2460231.500000000, A.D. 2023-Oct-14 00:00:00.0000, 1.635442562460956E+08, 2.481999945964711E+08, -6.227850300639123E+06,
2460238.500000000, A.D. 2023-Oct-21 00:00:00.0000, 1.537835437506391E+08, 2.570668974379039E+08, -6.759443428495705E+06,
2460245.500000000, A.D. 2023-Oct-28 00:00:00.0000, 1.437453844770740E+08, 2.654700308754368E+08, -7.278845152059376E+06,
2460252.500000000, A.D. 2023-Nov-04 00:00:00.0000, 1.334538886996770E+08, 2.734052992332380E+08, -7.785421433767870E+06,
2460259.500000000, A.D. 2023-Nov-11 00:00:00.0000, 1.229326261382968E+08, 2.808698284847675E+08, -8.278595563585803E+06,
2460266.500000000, A.D. 2023-Nov-18 00:00:00.0000, 1.122045818842047E+08, 2.878618766315870E+08, -8.757845593674541E+06,
2460273.500000000, A.D. 2023-Nov-25 00:00:00.0000, 1.012921216597395E+08, 2.943807465125747E+08, -9.222701687354654E+06,
2460280.500000000, A.D. 2023-Dec-02 00:00:00.0000, 9.021696551348668E+07, 3.004267016296884E+08, -9.672743428205788E+06,
2460287.500000000, A.D. 2023-Dec-09 00:00:00.0000, 7.900016911764160E+07, 3.060008853788592E+08, -1.010759713633138E+07,
2460294.500000000, A.D. 2023-Dec-16 00:00:00.0000, 6.766211207546945E+07, 3.111052440214396E+08, -1.052693324594930E+07,
2460301.500000000, A.D. 2023-Dec-23 00:00:00.0000, 5.622249275402809E+07, 3.157424543057806E+08, -1.093046374431796E+07,
2460308.500000000, A.D. 2023-Dec-30 00:00:00.0000, 4.470032753041608E+07, 3.199158569231080E+08, -1.131793948441797E+07,
2460315.500000000, A.D. 2024-Jan-06 00:00:00.0000, 3.311395196837046E+07, 3.236293934834138E+08, -1.168914741771498E+07,
2460322.500000000, A.D. 2024-Jan-13 00:00:00.0000, 2.148102644033296E+07, 3.268875451952837E+08, -1.204390819718812E+07,
2460329.500000000, A.D. 2024-Jan-20 00:00:00.0000, 9.818546835914547E+06, 3.296952762858045E+08, -1.238207402226408E+07,
2460336.500000000, A.D. 2024-Jan-27 00:00:00.0000, -1.857142191196478E+06, 3.320579827044495E+08, -1.270352649402229E+07,
2460343.500000000, A.D. 2024-Feb-03 00:00:00.0000, -1.353033233732172E+07, 3.339814450162038E+08, -1.300817452265702E+07,
2460350.500000000, A.D. 2024-Feb-10 00:00:00.0000, -2.518593526654060E+07, 3.354717850263345E+08, -1.329595233830437E+07,
2460357.500000000, A.D. 2024-Feb-17 00:00:00.0000, -3.680946496377787E+07, 3.365354259631818E+08, -1.356681761773194E+07,
2460364.500000000, A.D. 2024-Feb-24 00:00:00.0000, -4.838701911175241E+07, 3.371790560422036E+08, -1.382074972812657E+07,
2460371.500000000, A.D. 2024-Mar-02 00:00:00.0000, -5.990525974471179E+07, 3.374095951818673E+08, -1.405774809141563E+07,
2460378.500000000, A.D. 2024-Mar-09 00:00:00.0000, -7.135139328406413E+07, 3.372341646100577E+08, -1.427783068422161E+07,
2460385.500000000, A.D. 2024-Mar-16 00:00:00.0000, -8.271314977036098E+07, 3.366600593614943E+08, -1.448103269015846E+07,
2460392.500000000, A.D. 2024-Mar-23 00:00:00.0000, -9.397876157488197E+07, 3.356947245845632E+08, -1.466740520076807E+07,
2460399.500000000, A.D. 2024-Mar-30 00:00:00.0000, -1.051369439811269E+08, 3.343457354485568E+08, -1.483701375845587E+07,
2460406.500000000, A.D. 2024-Apr-06 00:00:00.0000, -1.161768775001509E+08, 3.326207770994395E+08, -1.498993703522439E+07,
2460413.500000000, A.D. 2024-Apr-13 00:00:00.0000, -1.270881884764519E+08, 3.305276253214682E+08, -1.512626589857134E+07,
2460420.500000000, A.D. 2024-Apr-20 00:00:00.0000, -1.378609290271726E+08, 3.280741304255011E+08, -1.524610255495541E+07,
2460427.500000000, A.D. 2024-Apr-27 00:00:00.0000, -1.484855578977451E+08, 3.252682036529253E+08, -1.534955967379957E+07,
2460434.500000000, A.D. 2024-May-04 00:00:00.0000, -1.589529221990061E+08, 3.221178052456530E+08, -1.543675955277412E+07,
2460441.500000000, A.D. 2024-May-11 00:00:00.0000, -1.692542398301528E+08, 3.186309339444951E+08, -1.550783334990515E+07,
2460448.500000000, A.D. 2024-May-18 00:00:00.0000, -1.793810825379975E+08, 3.148156178120238E+08, -1.556292038392414E+07,
2460455.500000000, A.D. 2024-May-25 00:00:00.0000, -1.893253596112414E+08, 3.106799062566131E+08, -1.560216750155325E+07,
2460462.500000000, A.D. 2024-Jun-01 00:00:00.0000, -1.990793021658487E+08, 3.062318630927420E+08, -1.562572851791638E+07,
2460469.500000000, A.D. 2024-Jun-08 00:00:00.0000, -2.086354477849050E+08, 3.014795605153895E+08, -1.563376375072783E+07,
2460476.500000000, A.D. 2024-Jun-15 00:00:00.0000, -2.179866251185004E+08, 2.964310744424064E+08, -1.562643963678303E+07,
2460483.500000000, A.D. 2024-Jun-22 00:00:00.0000, -2.271259394510471E+08, 2.910944823181305E+08, -1.560392823954299E+07,
2460490.500000000, A.D. 2024-Jun-29 00:00:00.0000, -2.360467613544327E+08, 2.854778614862803E+08, -1.556640659976156E+07,
2460497.500000000, A.D. 2024-Jul-06 00:00:00.0000, -2.447427157674450E+08, 2.795892855913455E+08, -1.551405637026255E+07,
2460504.500000000, A.D. 2024-Jul-13 00:00:00.0000, -2.532076695374524E+08, 2.734368217605485E+08, -1.544706367843962E+07,
2460511.500000000, A.D. 2024-Jul-20 00:00:00.0000, -2.614357194001950E+08, 2.670285296532509E+08, -1.536561893756530E+07,
2460518.500000000, A.D. 2024-Jul-27 00:00:00.0000, -2.694211810415443E+08, 2.603724613625331E+08, -1.526991662247561E+07,
2460525.500000000, A.D. 2024-Aug-03 00:00:00.0000, -2.771585789582892E+08, 2.534766617419274E+08, -1.516015506286514E+07,
2460532.500000000, A.D. 2024-Aug-10 00:00:00.0000, -2.846426369449147E+08, 2.463491691098082E+08, -1.503653626849188E+07,
2460539.500000000, A.D. 2024-Aug-17 00:00:00.0000, -2.918682691500189E+08, 2.389980163184086E+08, -1.489926578827904E+07,
2460546.500000000, A.D. 2024-Aug-24 00:00:00.0000, -2.988305716619877E+08, 2.314312321343905E+08, -1.474855260699689E+07,
2460553.500000000, A.D. 2024-Aug-31 00:00:00.0000, -3.055248144936799E+08, 2.236568428398696E+08, -1.458460909407403E+07,
2460560.500000000, A.D. 2024-Sep-07 00:00:00.0000, -3.119464335858968E+08, 2.156828741515032E+08, -1.440765102640974E+07,
2460567.500000000, A.D. 2024-Sep-14 00:00:00.0000, -3.180910227311183E+08, 2.075173544261428E+08, -1.421789761030557E+07,
2460574.500000000, A.D. 2024-Sep-21 00:00:00.0000, -3.239543274365818E+08, 1.991683195412981E+08, -1.401557128186253E+07,
2460581.500000000, A.D. 2024-Sep-28 00:00:00.0000, -3.295322412063694E+08, 1.906438162041939E+08, -1.380089750453825E+07,
2460588.500000000, A.D. 2024-Oct-05 00:00:00.0000, -3.348208005598040E+08, 1.819519036736294E+08, -1.357410489905015E+07,
2460595.500000000, A.D. 2024-Oct-12 00:00:00.0000, -3.398161791353679E+08, 1.731006568535849E+08, -1.333542542740504E+07,
2460602.500000000, A.D. 2024-Oct-19 00:00:00.0000, -3.445146826279813E+08, 1.640981704715192E+08, -1.308509449236923E+07,
2460609.500000000, A.D. 2024-Oct-26 00:00:00.0000, -3.489127445888405E+08, 1.549525635293490E+08, -1.282335101483399E+07,
2460616.500000000, A.D. 2024-Nov-02 00:00:00.0000, -3.530069228255612E+08, 1.456719838683351E+08, -1.255043752421896E+07,
2460623.500000000, A.D. 2024-Nov-09 00:00:00.0000, -3.567938963023524E+08, 1.362646128582266E+08, -1.226660026845107E+07,
2460630.500000000, A.D. 2024-Nov-16 00:00:00.0000, -3.602704625125994E+08, 1.267386702016100E+08, -1.197208934537970E+07,
2460637.500000000, A.D. 2024-Nov-23 00:00:00.0000, -3.634335352768968E+08, 1.171024187953856E+08, -1.166715886361058E+07,
2460644.500000000, A.D. 2024-Nov-30 00:00:00.0000, -3.662801427596681E+08, 1.073641695994147E+08, -1.135206715498474E+07,
2460651.500000000, A.D. 2024-Dec-07 00:00:00.0000, -3.688074252875943E+08, 9.753228692611767E+07, -1.102707704242418E+07,
2460658.500000000, A.D. 2024-Dec-14 00:00:00.0000, -3.710126336628168E+08, 8.761519536792508E+07, -1.069245599963102E+07,
2460665.500000000, A.D. 2024-Dec-21 00:00:00.0000, -3.728931302978973E+08, 7.762138711484604E+07, -1.034847609141137E+07,
2460672.500000000, A.D. 2024-Dec-28 00:00:00.0000, -3.744463912119059E+08, 6.755942669065736E+07, -9.995414118251372E+06,
2460679.500000000, A.D. 2025-Jan-04 00:00:00.0000, -3.756700062983395E+08, 5.743795548058378E+07, -9.633552008519961E+06,
2460686.500000000, A.D. 2025-Jan-11 00:00:00.0000, -3.765616796937514E+08, 4.726569770216919E+07, -9.263177154739590E+06,
2460693.500000000, A.D. 2025-Jan-18 00:00:00.0000, -3.771192311795262E+08, 3.705146689120671E+07, -8.884582684991691E+06,
2460700.500000000, A.D. 2025-Jan-25 00:00:00.0000, -3.773405983925856E+08, 2.680417242144382E+07, -8.498067730814431E+06,
2460707.500000000, A.D. 2025-Feb-01 00:00:00.0000, -3.772238396746598E+08, 1.653282602107378E+07, -8.103937711281316E+06,
2460714.500000000, A.D. 2025-Feb-08 00:00:00.0000, -3.767671375221758E+08, 6.246548296834514E+06, -7.702504636758850E+06,
2460721.500000000, A.D. 2025-Feb-15 00:00:00.0000, -3.759688026311984E+08, -4.045424764956827E+06, -7.294087436481730E+06,
$$EOE